WNISAT-1                
1 39423U 13066H   26063.00284200  .00002551  00000+0  47275-3 0  9990
2 39423  97.7027 219.7269 0163182 202.7983 156.5915 14.57845964651404
TRITON-1                
1 39427U 13066M   26063.19913157  .00003451  00000+0  42087-3 0  9990
2 39427  97.8309 335.4163 0089699 215.7513 143.7674 14.81160966658545
GOMX-1                  
1 39430U 13066Q   26063.10358192  .00002216  00000+0  33884-3 0  9990
2 39430  97.6569 270.1571 0130600  55.2913 306.0515 14.69071007654483
CUBEBUG-2 (LO-74)       
1 39440U 13066AA  26062.86655321  .00008858  00000+0  83132-3 0  9996
2 39440  97.8812  11.5305 0059388  18.3107 342.0232 14.92865511661275
NEE-02 KRYSAOR          
1 39441U 13066AB  26063.05903901  .00004506  00000+0  49914-3 0  9995
2 39441  97.8816   3.1105 0068168  55.1521 305.6080 14.86116875660584
FUNCUBE-1 (AO-73)       
1 39444U 13066AE  26062.33666782  .00010715  00000+0  69419-3 0  9992
2 39444  97.8168  31.7675 0036610 201.2550 158.7158 15.07759862663702
UWE-3                   
1 39446U 13066AG  26062.84429509  .00007180  00000+0  62860-3 0  9999
2 39446  97.8593  18.3537 0048814 312.6373  47.0737 14.96096774661820
BRITE-CA1 (TORONTO)     
1 40020U 14033L   26062.30920247  .00001673  00000+0  25976-3 0  9998
2 40020  97.9556 193.3093 0077697 255.6268 103.6306 14.72440643626634
DUCHIFAT-1              
1 40021U 14033M   26063.08119001  .00078555  00000+0  14393-2 0  9996
2 40021  98.0636 108.8507 0006589 100.6139 259.5852 15.49015163639401
NANOSATC-BR1            
1 40024U 14033Q   26063.02340148  .00026861  00000+0  98782-3 0  9999
2 40024  98.0836  86.3172 0004002 164.1002 196.0362 15.27859132637908
QB50P1                  
1 40025U 14033R   26062.90332399  .00014367  00000+0  74272-3 0  9991
2 40025  98.0997  66.7953 0007737 216.5301 143.5403 15.16365653637066
QB50P2                  
1 40032U 14033Y   26062.91188218  .00013188  00000+0  73872-3 0  9994
2 40032  98.0725  53.3824 0007968 159.9776 200.1768 15.13535092636734
PERSEUS-M2              
1 40037U 14033AD  26063.13917284  .00004237  00000+0  39135-3 0  9996
2 40037  97.9863  11.6406 0010273 292.4920  67.5212 14.95128970635088
PERSEUS-M1              
1 40039U 14033AF  26062.78506055  .00003842  00000+0  35462-3 0  9998
2 40039  97.9552   5.2819 0010001 290.8329  69.1820 14.95215520634884
POLYITAN-1              
1 40042U 14033AJ  26062.52418436  .00026616  00000+0  93821-3 0  9996
2 40042  98.1046  79.0575 0008872 145.7003 214.4810 15.29223770637428
TIGRISAT                
1 40043U 14033AK  26062.65926163  .00003270  00000+0  38381-3 0  9993
2 40043  97.7658 215.2119 0050719  61.7673 298.8649 14.84689030629969
AEROCUBE 6A             
1 40045U 14033AM  26062.91427399  .00009364  00000+0  81102-3 0  9990
2 40045  97.7110 231.1361 0039319   8.9432 351.2481 14.96741400630861
